name,source,collection_date,satellite_number,classification,launch_year,launch_number,launch_piece,epoch_year,epoch_day,inclination_deg,right_ascension_deg,eccentricity,argument_of_perigee_deg,mean_anomaly_deg,mean_motion,orbital_period_minutes,approximate_altitude_km,mean_motion_derivative,mean_motion_second_derivative,drag_term,element_set_number,revolution_number,line1,line2,category
STARLINK-33555,celestrak_active,2025-07-29T17:08:40.712076,62104,U,2024,220,S,2025,210.22526839,42.9999,27.681,0.0002166,267.499,92.5613,15.27563032,94.26779581819574,0,0.00023543,0.0,0.0086275,999,3898,1 62104U 24220S   25210.22526839  .00023543  00000+0  86275-3 0  9997,2 62104  42.9999  27.6810 0002166 267.4990  92.5613 15.27563032 38981,important
STARLINK-33542,celestrak_active,2025-07-29T17:08:40.712089,62105,U,2024,220,T,2025,209.58419458,42.921,271.9241,0.0002599,274.8954,85.1629,16.07792278,89.56380868996808,0,-2.703e-05,8.608900000000001e-05,2.3761e-07,999,4026,1 62105U 24220T   25209.58419458 -.00002703  86089-5  23761-7 0  9991,2 62105  42.9210 271.9241 0002599 274.8954  85.1629 16.07792278 40266,important
STARLINK-33557,celestrak_active,2025-07-29T17:08:40.712095,62106,U,2024,220,U,2025,209.66079245,42.9343,284.2781,0.0002511,278.7166,81.343,16.09612758,89.46251157882534,0,-2.606e-05,8.653600000000001e-05,1.3609e-06,999,3995,1 62106U 24220U   25209.66079245 -.00002606  86536-5  13609-6 0  9995,2 62106  42.9343 284.2781 0002511 278.7166  81.3430 16.09612758 39950,important
STARLINK-33559,celestrak_active,2025-07-29T17:08:40.712101,62107,U,2024,220,V,2025,210.22143005,43.0029,27.6549,0.0001794,263.1586,96.9062,15.27605652,94.26516575889181,0,0.00023436,0.0,0.0085778,999,3901,1 62107U 24220V   25210.22143005  .00023436  00000+0  85778-3 0  9998,2 62107  43.0029  27.6549 0001794 263.1586  96.9062 15.27605652 39015,important
STARLINK-33553,celestrak_active,2025-07-29T17:08:40.712106,62108,U,2024,220,W,2025,210.47525835,42.9995,26.1234,2.03e-05,31.911,328.1754,15.27606248,94.26512898106449,0,0.0002246,0.0,0.0082256,999,3905,1 62108U 24220W   25210.47525835  .00022460  00000+0  82256-3 0  9995,2 62108  42.9995  26.1234 0000203  31.9110 328.1754 15.27606248 39053,important
STARLINK-33556,celestrak_active,2025-07-29T17:08:40.712112,62109,U,2024,220,X,2025,210.46112405,43.0015,26.0171,0.0001515,274.9177,85.1501,15.27592138,94.26599968531653,0,0.00022553,0.0,0.0082626,999,3907,1 62109U 24220X   25210.46112405  .00022553  00000+0  82626-3 0  9994,2 62109  43.0015  26.0171 0001515 274.9177  85.1501 15.27592138 39071,important
STARLINK-33551,celestrak_active,2025-07-29T17:08:40.712117,62110,U,2024,220,Y,2025,210.21755748,43.0022,27.6272,0.0003746,269.2977,90.7446,15.27594198,94.26587256519548,0,0.00020074,0.0,0.007366,999,3901,1 62110U 24220Y   25210.21755748  .00020074  00000+0  73660-3 0  9996,2 62110  43.0022  27.6272 0003746 269.2977  90.7446 15.27594198 39015,important
STARLINK-32311,celestrak_active,2025-07-29T17:08:40.712133,62114,U,2024,222,A,2025,210.53187573,42.9974,301.4317,0.0001002,264.2363,95.8374,15.26762157,94.31724472589217,0,0.00018111,0.0,0.0068275,999,3895,1 62114U 24222A   25210.53187573  .00018111  00000+0  68275-3 0  9997,2 62114  42.9974 301.4317 0001002 264.2363  95.8374 15.26762157 38952,important
STARLINK-32470,celestrak_active,2025-07-29T17:08:40.712140,62115,U,2024,222,B,2025,210.28120702,43.0012,317.7003,3.55e-05,316.8242,43.2582,15.27630138,94.26365480621331,0,0.00033742,0.0,0.012282,999,3873,1 62115U 24222B   25210.28120702  .00033742  00000+0  12282-2 0  9994,2 62115  43.0012 317.7003 0000355 316.8242  43.2582 15.27630138 38738,important
STARLINK-32502,celestrak_active,2025-07-29T17:08:40.712146,62116,U,2024,222,C,2025,209.38766936,43.0012,323.0343,0.0001621,281.1232,78.9437,15.27590966,94.26607200817918,0,0.00020994,0.0,0.0077001000000000005,999,3849,1 62116U 24222C   25209.38766936  .00020994  00000+0  77001-3 0  9995,2 62116  43.0012 323.0343 0001621 281.1232  78.9437 15.27590966 38497,important
STARLINK-32521,celestrak_active,2025-07-29T17:08:40.712152,62117,U,2024,222,D,2025,210.55094449,43.0006,312.7044,7.4e-05,262.1423,97.9345,15.27608059,94.26501722848008,0,0.00034478,0.0,0.012555,999,3866,1 62117U 24222D   25210.55094449  .00034478  00000+0  12555-2 0  9994,2 62117  43.0006 312.7044 0000740 262.1423  97.9345 15.27608059 38667,important
STARLINK-32549,celestrak_active,2025-07-29T17:08:40.712157,62118,U,2024,222,E,2025,210.5940237,43.0038,315.7472,8.14e-05,274.5688,85.5071,15.27597971,94.26563973879486,0,0.00020666,0.0,0.007579799999999999,999,3869,1 62118U 24222E   25210.59402370  .00020666  00000+0  75798-3 0  9998,2 62118  43.0038 315.7472 0000814 274.5688  85.5071 15.27597971 38695,important
STARLINK-32535,celestrak_active,2025-07-29T17:08:40.712162,62119,U,2024,222,F,2025,210.57281087,42.9999,312.9892,0.000152,263.5396,96.5283,15.27599447,94.2655486572718,0,0.00033138,0.0,0.012076,999,3867,1 62119U 24222F   25210.57281087  .00033138  00000+0  12076-2 0  9994,2 62119  42.9999 312.9892 0001520 263.5396  96.5283 15.27599447 38679,important
STARLINK-32548,celestrak_active,2025-07-29T17:08:40.712168,62120,U,2024,222,G,2025,210.57875042,42.9981,316.4931,5.89e-05,248.042,112.0369,15.27600203,94.26550200582815,0,0.00023083,0.0,0.008452,999,3862,1 62120U 24222G   25210.57875042  .00023083  00000+0  84520-3 0  9998,2 62120  42.9981 316.4931 0000589 248.0420 112.0369 15.27600203 38622,important
STARLINK-32525,celestrak_active,2025-07-29T17:08:40.712173,62121,U,2024,222,H,2025,210.60044907,43.0014,315.7926,7.48e-05,281.2547,78.822,15.27595427,94.26579672524772,0,0.00019304,0.0,0.0070885,999,3864,1 62121U 24222H   25210.60044907  .00019304  00000+0  70885-3 0  9991,2 62121  43.0014 315.7926 0000748 281.2547  78.8220 15.27595427 38642,important
STARLINK-32628,celestrak_active,2025-07-29T17:08:40.712178,62122,U,2024,222,J,2025,209.63765117,43.0039,321.4674,0.000125,70.6509,289.4478,15.27578541,94.26683874842414,0,0.00020548,0.0,0.0075419,999,3865,1 62122U 24222J   25209.63765117  .00020548  00000+0  75419-3 0  9996,2 62122  43.0039 321.4674 0001250  70.6509 289.4478 15.27578541 38655,important
STARLINK-32626,celestrak_active,2025-07-29T17:08:40.712184,62123,U,2024,222,K,2025,210.57232662,42.9998,316.4448,0.0001708,283.3352,76.7309,15.27602199,94.2653788363655,0,0.00021732,0.0,0.0079639,999,3862,1 62123U 24222K   25210.57232662  .00021732  00000+0  79639-3 0  9990,2 62123  42.9998 316.4448 0001708 283.3352  76.7309 15.27602199 38622,important
STARLINK-32608,celestrak_active,2025-07-29T17:08:40.712191,62124,U,2024,222,L,2025,210.35047085,42.9976,317.3581,9.35e-05,269.2176,90.8569,15.27587694,94.26627392037632,0,0.00020975,0.0,0.007693800000000001,999,3858,1 62124U 24222L   25210.35047085  .00020975  00000+0  76938-3 0  9997,2 62124  42.9976 317.3581 0000935 269.2176  90.8569 15.27587694 38587,important
STARLINK-32488,celestrak_active,2025-07-29T17:08:40.712196,62125,U,2024,222,M,2025,210.58262858,43.0011,316.5204,0.0001336,279.984,80.0861,15.27548052,94.26872026150834,0,0.00025248,0.0,0.0092478,999,3852,1 62125U 24222M   25210.58262858  .00025248  00000+0  92478-3 0  9995,2 62125  43.0011 316.5204 0001336 279.9840  80.0861 15.27548052 38520,important
STARLINK-32490,celestrak_active,2025-07-29T17:08:40.712202,62126,U,2024,222,N,2025,210.59659501,43.0042,315.7638,4.51e-05,281.7126,78.3675,15.27593145,94.2659375445155,0,0.00019044,0.0,0.0069951,999,3863,1 62126U 24222N   25210.59659501  .00019044  00000+0  69951-3 0  9999,2 62126  43.0042 315.7638 0000451 281.7126  78.3675 15.27593145 38630,important
STARLINK-32557,celestrak_active,2025-07-29T17:08:40.712207,62127,U,2024,222,P,2025,210.55062406,42.9967,305.7457,4.94e-05,240.2028,119.8774,15.27601206,94.26544011251586,0,0.00019902,0.0,0.0073033,999,3879,1 62127U 24222P   25210.55062406  .00019902  00000+0  73033-3 0  9997,2 62127  42.9967 305.7457 0000494 240.2028 119.8774 15.27601206 38797,important
STARLINK-32568,celestrak_active,2025-07-29T17:08:40.712213,62128,U,2024,222,Q,2025,210.56847072,43.0063,316.417,0.0003587,273.3621,86.6821,15.27595667,94.26578191518267,0,0.00018771,0.0,0.0068952,999,3836,1 62128U 24222Q   25210.56847072  .00018771  00000+0  68952-3 0  9996,2 62128  43.0063 316.4170 0003587 273.3621  86.6821 15.27595667 38360,important
STARLINK-32462,celestrak_active,2025-07-29T17:08:40.712219,62129,U,2024,222,R,2025,210.56638824,42.999,312.9359,0.0001225,287.5756,72.4962,15.2760059,94.26547812474988,0,0.00021787,0.0,0.0079842,999,3866,1 62129U 24222R   25210.56638824  .00021787  00000+0  79842-3 0  9991,2 62129  42.9990 312.9359 0001225 287.5756  72.4962 15.27600590 38665,important
STARLINK-32463,celestrak_active,2025-07-29T17:08:40.712225,62130,U,2024,222,S,2025,210.60430673,43.0027,315.8229,3.23e-05,323.9978,36.0852,15.27594741,94.26583905737601,0,0.0001944,0.0,0.0071376,999,3863,1 62130U 24222S   25210.60430673  .00019440  00000+0  71376-3 0  9997,2 62130  43.0027 315.8229 0000323 323.9978  36.0852 15.27594741 38638,important
STARLINK-32550,celestrak_active,2025-07-29T17:08:40.712230,62131,U,2024,222,T,2025,210.57489704,42.9999,316.4609,0.0001603,260.6696,99.3974,15.27598744,94.26559203821917,0,0.00025736,0.0,0.009409599999999999,999,3867,1 62131U 24222T   25210.57489704  .00025736  00000+0  94096-3 0  9992,2 62131  42.9999 316.4609 0001603 260.6696  99.3974 15.27598744 38678,important
STARLINK-32507,celestrak_active,2025-07-29T17:08:40.712237,62132,U,2024,222,U,2025,210.59017111,42.9994,315.715,0.0001322,266.9912,93.0789,15.27601786,94.26540432180406,0,0.00029557,0.0,0.010786,999,3848,1 62132U 24222U   25210.59017111  .00029557  00000+0  10786-2 0  9992,2 62132  42.9994 315.7150 0001322 266.9912  93.0789 15.27601786 38480,important
